APRIZESAT 2             
1 28366U 04025A   26177.95637414  .00000201  00000+0  75572-4 0  9990
2 28366  98.1021 343.3841 0104740 220.0454 139.2979 14.38039715153041
SAUDICOMSAT 1           
1 28369U 04025D   26177.98440535  .00000360  00000+0  93565-4 0  9990
2 28369  98.5770 188.3801 0032008 355.8765   4.2163 14.55480938165552
SAUDICOMSAT 2           
1 28370U 04025E   26177.92403796  .00000227  00000+0  70244-4 0  9995
2 28370  98.6639 190.4457 0054493 229.4341 130.2102 14.49986070161514
APRIZESAT 1             
1 28372U 04025G   26177.94369205  .00000274  00000+0  79240-4 0  9992
2 28372  98.6302 188.9348 0045550 124.7273 235.8224 14.51782217163327
NANOSAT-1               
1 28493U 04049B   26177.90359733  .00001016  00000+0  14107-3 0  9998
2 28493  98.2286 314.8027 0002744 256.6397 103.4508 14.80177509156884
SAUDICOMSAT 7           
1 31119U 07012C   26177.87230442  .00000491  00000+0  96912-4 0  9992
2 31119  98.3782 152.2023 0055985 164.8226 195.4673 14.66118757 23859
SAUDICOMSAT 6           
1 31121U 07012E   26177.87336393  .00000504  00000+0  10618-3 0  9990
2 31121  98.4102 145.5702 0070549 297.2030  62.1993 14.62568591 21602
SAUDICOMSAT 5           
1 31124U 07012H   26177.90037004  .00000702  00000+0  12900-3 0  9990
2 31124  98.3493 152.9760 0048728  94.9289 265.7481 14.68168632 25026
SAUDICOMSAT 3           
1 31125U 07012J   26177.91209182  .00000874  00000+0  15044-3 0  9992
2 31125  98.3147 153.5354 0039655  23.1983 337.1002 14.70721610 26256
SAUDICOMSAT 4           
1 31127U 07012L   26177.85646331  .00000411  00000+0  85372-4 0  9997
2 31127  98.3987 150.6244 0062369 227.4193 132.1737 14.64520510 22709
APRIZESAT 4             
1 35684U 09041D   26177.76487506  .00000573  00000+0  75070-4 0  9993
2 35684  98.1410 253.2762 0041952 291.1859  68.4875 14.83890559912781
APRIZESAT 3             
1 35686U 09041F   26177.92946909  .00000998  00000+0  90871-4 0  9997
2 35686  98.2076 331.6207 0062497  35.9407 324.5992 14.96270234917830
S-NET D                 
1 43186U 18014G   26177.69822731  .00005138  00000+0  26512-3 0  9992
2 43186  97.5361  82.4296 0007901 359.1582   0.9636 15.16756105460209
S-NET B                 
1 43187U 18014H   26177.97375825  .00005193  00000+0  26810-3 0  9993
2 43187  97.5364  82.6904 0008312 353.1623   6.9495 15.16730242460245
S-NET A                 
1 43188U 18014J   26177.69705323  .00005228  00000+0  26960-3 0  9998
2 43188  97.5374  82.6260 0008295 354.3716   5.7422 15.16764284460204
S-NET C                 
1 43189U 18014K   26177.71378932  .00004905  00000+0  25347-3 0  9993
2 43189  97.5389  82.7188 0009368 344.9812  15.1141 15.16718962458757
SALSAT                  
1 46495U 20068K   26177.95657953  .00008212  00000+0  28601-3 0  9998
2 46495  97.8848 181.6168 0007822 266.2984  93.7361 15.29932421316851
OOV-CUBE (TUBSAT-30)    
1 60240U 24128F   26177.30430608  .00001677  00000+0  13798-3 0  9997
2 60240  61.9924 193.7808 0043497 135.8027 224.6553 15.02804000107481
LPNTSAT-001 (IOD-1)     
1 68408U 26065A   26176.90655221  .00002773  00000+0  13703-3 0  9992
2 68408  97.4014  57.2316 0015731 340.0376  20.0241 15.18578906 13583
